NORAD_CAT_ID,OBJECT_NAME,OBJECT_TYPE,EPOCH,MEAN_MOTION,ECCENTRICITY,INCLINATION,RA_OF_ASC_NODE,ARG_OF_PERICENTER,MEAN_ANOMALY,BSTAR,MEAN_MOTION_DOT,MEAN_MOTION_DDOT,TLE_LINE0,TLE_LINE1,TLE_LINE2,SEMIMAJOR_AXIS,PERIOD,APOGEE,PERIGEE,DECAYED
53909.0,STARLINK-4796,PAYLOAD,2024-03-10 22:23:07,15.08836315,0.0001601,53.2175,345.899,81.8803,278.2371,2.296e-05,7.7e-07,0.0,0 STARLINK-4796,1 53909U 22119Z   24070.93271998  .00000077  00000-0  22960-4 0  9999,2 53909  53.2175 345.8990 0001601  81.8803 278.2371 15.08836315 81802,6917.892,95.438,540.864,538.649,0.0
53909.0,STARLINK-4796,PAYLOAD,2024-03-11 01:33:52,15.08842732,0.0001165,53.2169,345.3035,77.3333,282.779,7.275e-05,8.7e-06,0.0,0 STARLINK-4796,1 53909U 22119Z   24071.06519416  .00000870  00000-0  72750-4 0  9997,2 53909  53.2169 345.3035 0001165  77.3333 282.7790 15.08842732 81404,6917.872,95.437,540.543,538.931,0.0
53909.0,STARLINK-4796,PAYLOAD,2024-03-11 11:06:11,15.08841087,0.0001182,53.2171,343.5196,87.0627,273.05,5.0617e-05,5.18e-06,0.0,0 STARLINK-4796,1 53909U 22119Z   24071.46263527  .00000518  00000-0  50617-4 0  9997,2 53909  53.2171 343.5196 0001182  87.0627 273.0500 15.08841087 81884,6917.877,95.437,540.56,538.924,0.0
53909.0,STARLINK-4796,PAYLOAD,2024-03-12 03:00:02,15.08845529,0.000131,53.2178,340.5472,90.8684,269.2458,8.199e-05,1.017e-05,0.0,0 STARLINK-4796,1 53909U 22119Z   24072.12503067  .00001017  00000-0  81990-4 0  9990,2 53909  53.2178 340.5472 0001310  90.8684 269.2458 15.08845529 81562,6917.863,95.437,540.635,538.822,0.0
53909.0,STARLINK-4796,PAYLOAD,2024-03-12 10:56:58,15.08840163,0.0001342,53.2181,339.0588,80.9504,279.164,2.2687e-05,7.3e-07,0.0,0 STARLINK-4796,1 53909U 22119Z   24072.45623567  .00000073  00000-0  22687-4 0  9993,2 53909  53.2181 339.0588 0001342  80.9504 279.1640 15.08840163 81611,6917.88,95.438,540.673,538.817,0.0
53909.0,STARLINK-4796,PAYLOAD,2024-03-13 10:47:45,15.08838333,0.0001314,53.2176,334.5994,96.7228,263.3913,4.6991e-05,4.6e-06,0.0,0 STARLINK-4796,1 53909U 22119Z   24073.44983744  .00000460  00000-0  46991-4 0  9993,2 53909  53.2176 334.5994 0001314  96.7228 263.3913 15.08838333 82180,6917.885,95.438,540.659,538.841,0.0
53909.0,STARLINK-4796,PAYLOAD,2024-03-13 20:20:04,15.0884297,0.0001318,53.2189,332.8128,100.5191,259.595,5.9523e-05,6.6e-06,0.0,0 STARLINK-4796,1 53909U 22119Z   24073.84727404  .00000660  00000-0  59523-4 0  9993,2 53909  53.2189 332.8128 0001318 100.5191 259.5950 15.08842970 81821,6917.871,95.437,540.648,538.825,0.0
53909.0,STARLINK-4796,PAYLOAD,2024-03-13 21:55:27,15.08843244,0.000131,53.219,332.5156,100.0923,260.0217,6.3791e-05,7.28e-06,0.0,0 STARLINK-4796,1 53909U 22119Z   24073.91351376  .00000728  00000-0  63791-4 0  9999,2 53909  53.2190 332.5156 0001310 100.0923 260.0217 15.08843244 82257,6917.87,95.437,540.642,538.829,0.0
53909.0,STARLINK-4796,PAYLOAD,2024-03-14 02:41:36,15.08854433,0.0001388,53.218,331.6234,106.4735,253.641,9.7797e-05,1.269e-05,0.0,0 STARLINK-4796,1 53909U 22119Z   24074.11222519  .00001269  00000-0  97797-4 0  9992,2 53909  53.2180 331.6234 0001388 106.4735 253.6410 15.08854433 81860,6917.836,95.437,540.661,538.741,0.0
53909.0,STARLINK-4796,PAYLOAD,2024-03-14 20:10:51,15.08834765,0.0001564,53.2197,328.3508,122.7266,237.3877,0.00015584,2.193e-05,0.0,0 STARLINK-4796,1 53909U 22119Z   24074.84087548  .00002193  00000-0  15584-3 0  9993,2 53909  53.2197 328.3508 0001564 122.7266 237.3877 15.08834765 81975,6917.896,95.438,540.843,538.679,0.0
53909.0,STARLINK-4796,PAYLOAD,2024-03-14 21:46:14,15.08839842,0.0001698,53.2198,328.0534,114.3254,245.7915,8.2947e-05,1.032e-05,0.0,0 STARLINK-4796,1 53909U 22119Z   24074.90711440  .00001032  00000-0  82947-4 0  9994,2 53909  53.2198 328.0534 0001698 114.3254 245.7915 15.08839842 82400,6917.881,95.438,540.921,538.571,0.0
53909.0,STARLINK-4796,PAYLOAD,2024-03-15 02:32:23,15.08842557,0.0001419,53.2186,327.1621,106.8587,253.2561,0.00010412,1.37e-05,0.0,0 STARLINK-4796,1 53909U 22119Z   24075.10583298  .00001370  00000-0  10412-3 0  9997,2 53909  53.2186 327.1621 0001419 106.8587 253.2561 15.08842557 82015,6917.873,95.437,540.719,538.756,0.0
53909.0,STARLINK-4796,PAYLOAD,2024-03-15 23:12:24,15.08848308,0.0001524,53.219,323.2939,108.9731,251.1426,-2.1286e-05,-6.27e-06,0.0,0 STARLINK-4796,1 53909U 22119Z   24075.96695222 -.00000627  00000-0 -21286-4 0  9990,2 53909  53.2190 323.2939 0001524 108.9731 251.1426 15.08848308 82567,6917.855,95.437,540.774,538.666,0.0
53909.0,STARLINK-4796,PAYLOAD,2024-03-16 19:52:26,15.08834363,0.0001374,53.2175,319.4303,104.5936,255.5209,-1.438e-05,-5.17e-06,0.0,0 STARLINK-4796,1 53909U 22119Z   24076.82808227 -.00000517  00000-0 -14380-4 0  9992,2 53909  53.2175 319.4303 0001374 104.5936 255.5209 15.08834363 82275,6917.898,95.438,540.713,538.812,0.0
53909.0,STARLINK-4796,PAYLOAD,2024-03-16 21:27:49,15.08835606,0.0001429,53.2179,319.1334,104.1024,256.0127,-3.7283e-06,-3.47e-06,0.0,0 STARLINK-4796,1 53909U 22119Z   24076.89432127 -.00000347  00000-0 -37283-5 0  9990,2 53909  53.2179 319.1334 0001429 104.1024 256.0127 15.08835606 82709,6917.894,95.438,540.747,538.77,0.0
53909.0,STARLINK-4796,PAYLOAD,2024-03-17 02:13:58,15.08835896,0.0001396,53.2178,318.2419,101.9308,258.184,-9.1673e-06,-4.34e-06,0.0,0 STARLINK-4796,1 53909U 22119Z   24077.09304158 -.00000434  00000-0 -91673-5 0  9995,2 53909  53.2178 318.2419 0001396 101.9308 258.1840 15.08835896 82734,6917.893,95.438,540.724,538.792,0.0
53909.0,STARLINK-4796,PAYLOAD,2024-03-17 21:18:36,15.08836282,0.000133,53.2172,314.6756,96.769,263.3454,0.00011262,1.505e-05,0.0,0 STARLINK-4796,1 53909U 22119Z   24077.88791861  .00001505  00000-0  11262-3 0  9995,2 53909  53.2172 314.6756 0001330  96.7690 263.3454 15.08836282 82857,6917.892,95.438,540.677,538.837,0.0
53909.0,STARLINK-4796,PAYLOAD,2024-03-18 21:09:23,15.08837005,0.0001263,53.2167,310.2156,93.6284,266.4853,5.8913e-05,6.5e-06,0.0,0 STARLINK-4796,1 53909U 22119Z   24078.88152291  .00000650  00000-0  58913-4 0  9999,2 53909  53.2167 310.2156 0001263  93.6284 266.4853 15.08837005 83006,6917.89,95.438,540.628,538.881,0.0
53909.0,STARLINK-4796,PAYLOAD,2024-03-19 00:20:09,15.08835807,0.0001276,53.2172,309.6207,88.368,271.7458,0.00012749,1.741e-05,0.0,0 STARLINK-4796,1 53909U 22119Z   24079.01400217  .00001741  00000-0  12749-3 0  9997,2 53909  53.2172 309.6207 0001276  88.3680 271.7458 15.08835807 82609,6917.893,95.438,540.641,538.875,0.0
53909.0,STARLINK-4796,PAYLOAD,2024-03-19 21:00:09,15.08856169,0.0001615,53.2183,305.759,117.1947,242.921,-2.6711e-05,-7.13e-06,0.0,0 STARLINK-4796,1 53909U 22119Z   24079.87511406 -.00000713  00000-0 -26711-4 0  9999,2 53909  53.2183 305.7590 0001615 117.1947 242.9210 15.08856169 82731,6917.831,95.437,540.813,538.579,0.0
53909.0,STARLINK-4796,PAYLOAD,2024-03-20 00:10:55,15.0885959,0.0001733,53.2173,305.162,115.5787,244.5384,-2.3294e-05,-6.59e-06,0.0,0 STARLINK-4796,1 53909U 22119Z   24080.00759074 -.00000659  00000-0 -23294-4 0  9993,2 53909  53.2173 305.1620 0001733 115.5787 244.5384 15.08859590 83173,6917.821,95.436,540.884,538.487,0.0
53909.0,STARLINK-4796,PAYLOAD,2024-03-20 20:50:57,15.08838893,0.0001248,53.2173,301.2934,92.6439,267.4696,3.992e-05,3.48e-06,0.0,0 STARLINK-4796,1 53909U 22119Z   24080.86872368  .00000348  00000-0  39920-4 0  9995,2 53909  53.2173 301.2934 0001248  92.6439 267.4696 15.08838893 82888,6917.884,95.438,540.612,538.885,0.0
53909.0,STARLINK-4796,PAYLOAD,2024-03-20 22:26:20,15.08839591,0.0001281,53.2176,300.997,89.2549,270.859,4.6368e-05,4.5e-06,0.0,0 STARLINK-4796,1 53909U 22119Z   24080.93496354  .00000450  00000-0  46368-4 0  9998,2 53909  53.2176 300.9970 0001281  89.2549 270.8590 15.08839591 83314,6917.882,95.438,540.633,538.86,0.0
53909.0,STARLINK-4796,PAYLOAD,2024-03-21 07:58:39,15.08840446,0.0001227,53.2171,299.2103,94.3123,265.801,1.5433e-05,-4.2e-07,0.0,0 STARLINK-4796,1 53909U 22119Z   24081.33240323 -.00000042  00000-0  15433-4 0  9993,2 53909  53.2171 299.2103 0001227  94.3123 265.8010 15.08840446 83370,6917.879,95.438,540.593,538.895,0.0
53909.0,STARLINK-4796,PAYLOAD,2024-03-21 20:41:44,15.08852514,0.0001225,53.217,296.8318,96.1549,263.9583,2.8028e-05,1.58e-06,0.0,0 STARLINK-4796,1 53909U 22119Z   24081.86231585  .00000158  00000-0  28028-4 0  9992,2 53909  53.2170 296.8318 0001225  96.1549 263.9583 15.08852514 83036,6917.842,95.437,540.555,538.86,0.0
53909.0,STARLINK-4796,PAYLOAD,2024-03-21 23:52:30,15.08853223,0.0001258,53.2164,296.2346,111.1931,248.9196,0.00015442,2.171e-05,0.0,0 STARLINK-4796,1 53909U 22119Z   24081.99479439  .00002171  00000-0  15442-3 0  9990,2 53909  53.2164 296.2346 0001258 111.1931 248.9196 15.08853223 83472,6917.84,95.437,540.575,538.835,0.0
53909.0,STARLINK-4796,PAYLOAD,2024-03-22 20:32:31,15.08845724,0.0001538,53.2189,292.3663,101.9383,258.1782,0.00011699,1.575e-05,0.0,0 STARLINK-4796,1 53909U 22119Z   24082.85591580  .00001575  00000-0  11699-3 0  9995,2 53909  53.2189 292.3663 0001538 101.9383 258.1782 15.08845724 83186,6917.863,95.437,540.792,538.664,0.0
53909.0,STARLINK-4796,PAYLOAD,2024-03-23 20:23:18,15.08843375,0.0001339,53.2155,287.9089,82.5343,277.5801,-4.1994e-06,-3.55e-06,0.0,0 STARLINK-4796,1 53909U 22119Z   24083.84952055 -.00000355  00000-0 -41994-5 0  9993,2 53909  53.2155 287.9089 0001339  82.5343 277.5801 15.08843375 83334,6917.87,95.437,540.661,538.809,0.0
53909.0,STARLINK-4796,PAYLOAD,2024-03-24 05:55:37,15.08839884,0.0001228,53.2149,286.1251,87.1232,272.9901,-4.3121e-05,-9.74e-06,0.0,0 STARLINK-4796,1 53909U 22119Z   24084.24696180 -.00000974  00000-0 -43121-4 0  9992,2 53909  53.2149 286.1251 0001228  87.1232 272.9901 15.08839884 83817,6917.881,95.438,540.595,538.896,0.0
53909.0,STARLINK-4796,PAYLOAD,2024-03-24 20:14:06,15.08844168,0.0001412,53.2161,283.451,84.3612,275.7541,0.00024045,3.541e-05,0.0,0 STARLINK-4796,1 53909U 22119Z   24084.84312741  .00003541  00000-0  24045-3 0  9990,2 53909  53.2161 283.4510 0001412  84.3612 275.7541 15.08844168 83480,6917.868,95.437,540.709,538.756,0.0
